{
  "links" : {
    "next" : "https://api.nasa.gov/neo/rest/v1/feed?start_date=2010-06-16&end_date=2010-06-16&detailed=true&api_key=t0TVs3DtDT2H8Oy2Zy8m2eVrNsAVKAexjcZXUckd",
    "prev" : "https://api.nasa.gov/neo/rest/v1/feed?start_date=2010-06-14&end_date=2010-06-14&detailed=true&api_key=t0TVs3DtDT2H8Oy2Zy8m2eVrNsAVKAexjcZXUckd",
    "self" : "https://api.nasa.gov/neo/rest/v1/feed?start_date=2010-06-15&end_date=2010-06-15&detailed=true&api_key=t0TVs3DtDT2H8Oy2Zy8m2eVrNsAVKAexjcZXUckd"
  },
  "element_count" : 3,
  "near_earth_objects" : {
    "2010-06-15" : [ {
      "links" : {
        "self" : "https://api.nasa.gov/neo/rest/v1/neo/2365449?api_key=t0TVs3DtDT2H8Oy2Zy8m2eVrNsAVKAexjcZXUckd"
      },
      "neo_reference_id" : "2365449",
      "name" : "365449 (2010 NJ1)",
      "nasa_jpl_url" : "http://ssd.jpl.nasa.gov/sbdb.cgi?sstr=2365449",
      "absolute_magnitude_h" : 20.5,
      "estimated_diameter" : {
        "kilometers" : {
          "estimated_diameter_min" : 0.2111324448,
          "estimated_diameter_max" : 0.4721064988
        },
        "meters" : {
          "estimated_diameter_min" : 211.1324447897,
          "estimated_diameter_max" : 472.1064988055
        },
        "miles" : {
          "estimated_diameter_min" : 0.1311915784,
          "estimated_diameter_max" : 0.2933532873
        },
        "feet" : {
          "estimated_diameter_min" : 692.6917701639,
          "estimated_diameter_max" : 1548.9058855411
        }
      },
      "is_potentially_hazardous_asteroid" : false,
      "close_approach_data" : [ {
        "close_approach_date" : "2010-06-15",
        "epoch_date_close_approach" : 1276585200000,
        "relative_velocity" : {
          "kilometers_per_second" : "24.330448002",
          "kilometers_per_hour" : "87589.612807339",
          "miles_per_hour" : "54424.7791357601"
        },
        "miss_distance" : {
          "astronomical" : "0.3113318297",
          "lunar" : "121.1080856323",
          "kilometers" : "46574580",
          "miles" : "28940102"
        },
        "orbiting_body" : "Earth"
      } ],
      "orbital_data" : {
        "orbit_id" : "57",
        "orbit_determination_date" : "2017-07-28 06:19:26",
        "orbit_uncertainty" : "1",
        "minimum_orbit_intersection" : ".154706",
        "jupiter_tisserand_invariant" : "6.085",
        "epoch_osculation" : "2458000.5",
        "eccentricity" : ".5405178023526714",
        "semi_major_axis" : ".968377581781579",
        "inclination" : "11.22419547692227",
        "ascending_node_longitude" : "128.2836974696954",
        "orbital_period" : "348.0691375405533",
        "perihelion_distance" : ".4449522594294055",
        "perihelion_argument" : "358.5166597457216",
        "aphelion_distance" : "1.491802904133752",
        "perihelion_time" : "2458091.374780160312",
        "mean_anomaly" : "266.010279771211",
        "mean_motion" : "1.034277277622917",
        "equinox" : "J2000"
      }
    }, {
      "links" : {
        "self" : "https://api.nasa.gov/neo/rest/v1/neo/3514800?api_key=t0TVs3DtDT2H8Oy2Zy8m2eVrNsAVKAexjcZXUckd"
      },
      "neo_reference_id" : "3514800",
      "name" : "(2010 FJ81)",
      "nasa_jpl_url" : "http://ssd.jpl.nasa.gov/sbdb.cgi?sstr=3514800",
      "absolute_magnitude_h" : 20.8,
      "estimated_diameter" : {
        "kilometers" : {
          "estimated_diameter_min" : 0.1838886721,
          "estimated_diameter_max" : 0.411187571
        },
        "meters" : {
          "estimated_diameter_min" : 183.8886720703,
          "estimated_diameter_max" : 411.1875710413
        },
        "miles" : {
          "estimated_diameter_min" : 0.1142630881,
          "estimated_diameter_max" : 0.2555000322
        },
        "feet" : {
          "estimated_diameter_min" : 603.309310875,
          "estimated_diameter_max" : 1349.040630575
        }
      },
      "is_potentially_hazardous_asteroid" : false,
      "close_approach_data" : [ {
        "close_approach_date" : "2010-06-15",
        "epoch_date_close_approach" : 1276585200000,
        "relative_velocity" : {
          "kilometers_per_second" : "25.3512554859",
          "kilometers_per_hour" : "91264.5197493696",
          "miles_per_hour" : "56708.2233964902"
        },
        "miss_distance" : {
          "astronomical" : "0.3193297306",
          "lunar" : "124.2192687988",
          "kilometers" : "47771048",
          "miles" : "29683554"
        },
        "orbiting_body" : "Earth"
      } ],
      "orbital_data" : {
        "orbit_id" : "13",
        "orbit_determination_date" : "2017-04-06 08:57:58",
        "orbit_uncertainty" : "6",
        "minimum_orbit_intersection" : ".12919",
        "jupiter_tisserand_invariant" : "2.340",
        "epoch_osculation" : "2458000.5",
        "eccentricity" : ".6833549605337562",
        "semi_major_axis" : "3.603392042262589",
        "inclination" : "42.46097712375004",
        "ascending_node_longitude" : "97.3908725728663",
        "orbital_period" : "2498.421448286268",
        "perihelion_distance" : "1.140996215434586",
        "perihelion_argument" : "171.6199991254843",
        "aphelion_distance" : "6.065787869090591",
        "perihelion_time" : "2457825.037517080526",
        "mean_anomaly" : "25.28256147270041",
        "mean_motion" : ".1440909820266446",
        "equinox" : "J2000"
      }
    }, {
      "links" : {
        "self" : "https://api.nasa.gov/neo/rest/v1/neo/3713287?api_key=t0TVs3DtDT2H8Oy2Zy8m2eVrNsAVKAexjcZXUckd"
      },
      "neo_reference_id" : "3713287",
      "name" : "(2015 FD)",
      "nasa_jpl_url" : "http://ssd.jpl.nasa.gov/sbdb.cgi?sstr=3713287",
      "absolute_magnitude_h" : 26.6,
      "estimated_diameter" : {
        "kilometers" : {
          "estimated_diameter_min" : 0.0127219879,
          "estimated_diameter_max" : 0.0284472297
        },
        "meters" : {
          "estimated_diameter_min" : 12.7219878539,
          "estimated_diameter_max" : 28.4472296503
        },
        "miles" : {
          "estimated_diameter_min" : 0.0079050743,
          "estimated_diameter_max" : 0.0176762835
        },
        "feet" : {
          "estimated_diameter_min" : 41.7388066307,
          "estimated_diameter_max" : 93.330808926
        }
      },
      "is_potentially_hazardous_asteroid" : false,
      "close_approach_data" : [ {
        "close_approach_date" : "2010-06-15",
        "epoch_date_close_approach" : 1276585200000,
        "relative_velocity" : {
          "kilometers_per_second" : "15.0466589109",
          "kilometers_per_hour" : "54167.9720793127",
          "miles_per_hour" : "33657.8713178374"
        },
        "miss_distance" : {
          "astronomical" : "0.2784717655",
          "lunar" : "108.3255157471",
          "kilometers" : "41658784",
          "miles" : "25885568"
        },
        "orbiting_body" : "Earth"
      } ],
      "orbital_data" : {
        "orbit_id" : "8",
        "orbit_determination_date" : "2017-04-06 08:35:06",
        "orbit_uncertainty" : "6",
        "minimum_orbit_intersection" : ".0141892",
        "jupiter_tisserand_invariant" : "6.585",
        "epoch_osculation" : "2458000.5",
        "eccentricity" : ".2659810585022109",
        "semi_major_axis" : ".8990512479149028",
        "inclination" : "5.591298208824594",
        "ascending_node_longitude" : "356.0648757622465",
        "orbital_period" : "311.3688044638748",
        "perihelion_distance" : ".6599206453467633",
        "perihelion_argument" : "44.75272724801186",
        "aphelion_distance" : "1.138181850483042",
        "perihelion_time" : "2457936.735095277578",
        "mean_anomaly" : "73.72403841032603",
        "mean_motion" : "1.1561851888787",
        "equinox" : "J2000"
      }
    } ]
  }
}